ORBCOMM FM37 [-]        
1 33064U 08031E   24096.74102574  .00001717  00000+0  27524-3 0  9997
2 33064  48.4390 257.5369 0006248 297.9950  75.4770 14.76170763849344
ORBCOMM FM40 [-]        
1 33065U 08031F   24096.86236924  .00002267  00000+0  34364-3 0  9999
2 33065  48.4414 246.6648 0007517 307.2311 209.3345 14.77455642849391
VESSELSAT 1 [-]         
1 37840U 11058C   24096.71127916  .00000381  00000+0  63394-4 0  9992
2 37840  19.9615 220.6068 0013828  55.3011 304.8695 14.11133471644438
ORBCOMM FM109 [+]       
1 40086U 14040A   24096.93409972  .00000639  00000+0  17982-3 0  9998
2 40086  47.0035 278.7561 0001455 125.2029 234.8992 14.56446012517284
ORBCOMM FM107 [+]       
1 40087U 14040B   24096.62549777  .00000668  00000+0  18631-3 0  9997
2 40087  47.0048 281.1717 0000750  74.6476 285.4492 14.56449709517317
ORBCOMM FM111 [-]       
1 40089U 14040D   24096.83339408  .00002405  00000+0  32735-3 0  9992
2 40089  47.0053  40.9734 0033626 265.5972  94.1080 14.81458812525270
ORBCOMM FM104 [-]       
1 40090U 14040E   24096.83595160  .00000602  00000+0  17687-3 0  9999
2 40090  47.0056 308.7108 0016885   6.3719 353.7377 14.55002905516893
